OBJECT_NAME,OBJECT_ID,EPOCH,MEAN_MOTION,ECCENTRICITY,INCLINATION,RA_OF_ASC_NODE,ARG_OF_PERICENTER,MEAN_ANOMALY,EPHEMERIS_TYPE,CLASSIFICATION_TYPE,NORAD_CAT_ID,ELEMENT_SET_NO,REV_AT_EPOCH,BSTAR,MEAN_MOTION_DOT,MEAN_MOTION_DDOT
STARLINK-31704,2024-076Y,2026-06-02T00:00:04.999968,15.45689475,.00168952,42.9903,200.4690,59.1280,51.5569,0,U,59586,999,581,.17502216E-2,.87642E-3,0
NEONSAT-1,2024-077A,2026-06-02T07:28:43.631040,15.38083796,.00098605,97.3494,237.3035,91.4205,268.8169,0,U,59587,999,11744,.46039879E-3,.1722E-3,0
ACS3,2024-077B,2026-06-01T16:46:09.188544,13.93182330,.00368905,97.1686,74.9465,61.0644,299.4214,0,U,59588,999,10588,.31110632E-2,.405E-4,0
GSAT0225 (GALILEO 29),2024-079A,2026-06-01T13:44:45.682080,1.70474354,.00019825,55.1101,101.5164,291.1404,71.5895,0,U,59598,999,1305,0,-.1E-7,0
GSAT0227 (GALILEO 30),2024-079C,2026-06-01T03:57:40.509216,1.70474226,.00017809,55.1054,101.5262,38.5347,321.4234,0,U,59600,999,1309,0,-.3E-7,0
STARLINK-31770,2024-080A,2026-06-01T16:10:26.642208,15.27565181,.0000858,43.0009,283.8947,224.7646,135.3136,0,U,59601,999,11858,-.46473051E-4,-.154E-4,0
STARLINK-31778,2024-080B,2026-06-01T19:21:17.491680,15.27578590,.00010486,43.0009,279.7121,222.2492,137.8279,0,U,59602,999,11743,.16741787E-3,.4347E-4,0
STARLINK-31776,2024-080C,2026-05-31T18:09:40.925088,15.27579414,.00012233,43.0004,292.5093,261.8495,98.2218,0,U,59603,999,11719,.43333152E-4,.931E-5,0
STARLINK-31765,2024-080D,2026-06-01T15:28:34.521600,15.27563215,.00023215,43.0045,280.2135,255.3562,104.7032,0,U,59604,999,11741,-.2051784E-5,-.319E-5,0
STARLINK-31767,2024-080E,2026-06-01T15:59:20.486112,15.27548016,.00010744,43.0006,283.8354,228.4316,131.6444,0,U,59605,999,11737,.25609481E-3,.6785E-4,0
STARLINK-31782,2024-080F,2026-06-01T16:22:41.575296,15.27564772,.00007353,43.0007,287.4157,239.9789,120.0990,0,U,59606,999,11733,.37152332E-4,.76E-5,0
STARLINK-31755,2024-080G,2026-06-01T19:36:33.369696,15.27580742,.00008689,43.0009,286.7088,208.5455,151.5349,0,U,59607,999,11735,-.19728889E-4,-.805E-5,0
STARLINK-31585,2024-080H,2026-06-01T16:20:10.170528,15.27570401,.00012503,43.0018,279.6228,226.5183,133.5565,0,U,59608,999,11743,.43325491E-4,.93E-5,0
STARLINK-31667,2024-080J,2026-06-01T08:34:57.803808,15.27565935,.00019074,43.0042,281.4988,290.9857,69.0790,0,U,59609,999,11737,.16289541E-4,.186E-5,0
STARLINK-31729,2024-080K,2026-06-01T16:05:34.957536,15.27571923,.00010465,43.0009,280.4133,286.4244,73.6493,0,U,59610,999,11741,.63992659E-4,.1499E-4,0
STARLINK-31448,2024-080L,2026-06-01T15:43:22.677312,15.27582151,.00007737,42.9996,280.2929,238.6030,121.4746,0,U,59611,999,11741,-.72018743E-4,-.2243E-4,0
STARLINK-31748,2024-080M,2026-06-01T08:58:59.589984,15.27572365,.00007717,42.9986,281.6274,218.1729,141.9069,0,U,59612,999,11854,.17331539E-4,.215E-5,0
STARLINK-31746,2024-080N,2026-06-01T16:33:46.859616,15.27571406,.00009234,43.0016,287.4494,248.0374,112.0380,0,U,59613,999,11733,.38721694E-4,.803E-5,0
STARLINK-31762,2024-080P,2026-06-01T20:36:14.628096,15.27579157,.00008256,42.9978,282.6973,204.2085,155.8728,0,U,59614,999,11740,.15110665E-3,.3898E-4,0
STARLINK-31768,2024-080R,2026-06-01T15:50:04.771680,15.27567005,.000077,42.9986,283.7897,303.9295,56.1484,0,U,59616,999,11737,.8933718E-5,-.16E-6,0
STARLINK-31769,2024-080S,2026-06-01T19:24:17.849952,15.27575162,.00009808,43.0025,283.1874,287.8633,72.2111,0,U,59617,999,11739,-.33770646E-4,-.1191E-4,0
STARLINK-31784,2024-080T,2026-06-01T19:21:44.481312,15.27576923,.00017065,43.0044,286.6297,264.5808,95.4849,0,U,59618,999,11735,-.23228269E-4,-.901E-5,0
STARLINK-31777,2024-080U,2026-06-01T16:18:59.257728,15.27569783,.00007187,43.0011,287.3946,236.9080,123.1702,0,U,59619,999,11733,.33789609E-4,.668E-5,0
STARLINK-31758,2024-080W,2026-06-01T16:33:07.560576,15.27572769,.00009784,42.9997,279.6926,301.4112,58.6644,0,U,59621,999,11742,.52439174E-4,.1181E-4,0
STARLINK-31774,2024-080X,2026-06-01T19:00:56.779776,15.27569056,.00003459,42.9994,279.6001,84.5176,275.5715,0,U,59622,999,11743,-.18292959E-4,-.765E-5,0
STARLINK-31763,2024-080Y,2026-06-01T10:04:54.310656,15.27568932,.00009856,43.0011,285.4275,226.7515,133.3254,0,U,59623,999,11733,.22124403E-4,.347E-5,0
LEGION 1,2024-081A,2026-06-02T05:59:56.061024,15.16553793,.0010714,97.5018,231.2673,65.3521,294.8826,0,U,59625,999,11527,.22155217E-3,.4261E-4,0
LEGION 2,2024-081B,2026-06-02T05:07:48.818208,15.16534952,.00121729,97.5019,231.3293,35.4987,324.7054,0,U,59626,999,11527,.22560149E-3,.4339E-4,0
STARLINK-31749,2024-082A,2026-06-01T23:00:26.918496,15.27489198,.00007775,43.0050,23.5733,299.5413,60.5361,0,U,59631,999,11790,-.44568229E-3,-.12471E-3,0
STARLINK-31781,2024-082B,2026-06-01T22:07:45.567552,15.27569213,.00006838,43.0027,9.9992,264.1508,95.9265,0,U,59632,999,11789,.79448603E-4,.1924E-4,0
