STARLINK-31704          
1 59586U 24076Y   26153.00005787  .00087642  00000+0  17502-2 0  9999
2 59586  42.9903 200.4690 0016895  59.1280  51.5569 15.45689475  5816
NEONSAT-1               
1 59587U 24077A   26153.31161610  .00017220  00000+0  46040-3 0  9998
2 59587  97.3494 237.3035 0009860  91.4205 268.8169 15.38083796117446
ACS3                    
1 59588U 24077B   26152.69871746  .00004050  00000+0  31111-2 0  9996
2 59588  97.1686  74.9465 0036890  61.0644 299.4214 13.93182330105882
GSAT0225 (GALILEO 29)   
1 59598U 24079A   26152.57275095 -.00000001  00000+0  00000+0 0  9994
2 59598  55.1101 101.5164 0001982 291.1404  71.5895  1.70474354 13059
GSAT0227 (GALILEO 30)   
1 59600U 24079C   26152.16505219 -.00000003  00000+0  00000+0 0  9999
2 59600  55.1054 101.5262 0001780  38.5347 321.4234  1.70474226 13090
STARLINK-31770          
1 59601U 24080A   26152.67391947 -.00001540  00000+0 -46473-4 0  9996
2 59601  43.0009 283.8947 0000858 224.7646 135.3136 15.27565181118588
STARLINK-31778          
1 59602U 24080B   26152.80645245  .00004347  00000+0  16742-3 0  9996
2 59602  43.0009 279.7121 0001048 222.2492 137.8279 15.27578590117437
STARLINK-31776          
1 59603U 24080C   26151.75672367  .00000931  00000+0  43333-4 0  9997
2 59603  43.0004 292.5093 0001223 261.8495  98.2218 15.27579414117193
STARLINK-31765          
1 59604U 24080D   26152.64484400 -.00000319  00000+0 -20518-5 0  9999
2 59604  43.0045 280.2135 0002321 255.3562 104.7032 15.27563215117417
STARLINK-31767          
1 59605U 24080E   26152.66620933  .00006785  00000+0  25609-3 0  9990
2 59605  43.0006 283.8354 0001074 228.4316 131.6444 15.27548016117372
STARLINK-31782          
1 59606U 24080F   26152.68242564  .00000760  00000+0  37152-4 0  9997
2 59606  43.0007 287.4157 0000735 239.9789 120.0990 15.27564772117330
STARLINK-31755          
1 59607U 24080G   26152.81705289 -.00000805  00000+0 -19729-4 0  9993
2 59607  43.0009 286.7088 0000868 208.5455 151.5349 15.27580742117351
STARLINK-31585          
1 59608U 24080H   26152.68067327  .00000930  00000+0  43325-4 0  9999
2 59608  43.0018 279.6228 0001250 226.5183 133.5565 15.27570401117433
STARLINK-31667          
1 59609U 24080J   26152.35761347  .00000186  00000+0  16290-4 0  9991
2 59609  43.0042 281.4988 0001907 290.9857  69.0790 15.27565935117379
STARLINK-31729          
1 59610U 24080K   26152.67054349  .00001499  00000+0  63993-4 0  9995
2 59610  43.0009 280.4133 0001046 286.4244  73.6493 15.27571923117419
STARLINK-31448          
1 59611U 24080L   26152.65512358 -.00002243  00000+0 -72019-4 0  9992
2 59611  42.9996 280.2929 0000773 238.6030 121.4746 15.27582151117410
STARLINK-31748          
1 59612U 24080M   26152.37430081  .00000215  00000+0  17332-4 0  9996
2 59612  42.9986 281.6274 0000771 218.1729 141.9069 15.27572365118540
STARLINK-31746          
1 59613U 24080N   26152.69012569  .00000803  00000+0  38722-4 0  9998
2 59613  43.0016 287.4494 0000923 248.0374 112.0380 15.27571406117338
STARLINK-31762          
1 59614U 24080P   26152.85850264  .00003898  00000+0  15111-3 0  9992
2 59614  42.9978 282.6973 0000825 204.2085 155.8728 15.27579157117407
STARLINK-31768          
1 59616U 24080R   26152.65977745 -.00000016  00000+0  89337-5 0  9999
2 59616  42.9986 283.7897 0000770 303.9295  56.1484 15.27567005117371
STARLINK-31769          
1 59617U 24080S   26152.80853993 -.00001191  00000+0 -33771-4 0  9991
2 59617  43.0025 283.1874 0000980 287.8633  72.2111 15.27575162117397
STARLINK-31784          
1 59618U 24080T   26152.80676483 -.00000901  00000+0 -23228-4 0  9993
2 59618  43.0044 286.6297 0001706 264.5808  95.4849 15.27576923117356
STARLINK-31777          
1 59619U 24080U   26152.67985252  .00000668  00000+0  33790-4 0  9999
2 59619  43.0011 287.3946 0000718 236.9080 123.1702 15.27569783117338
STARLINK-31758          
1 59621U 24080W   26152.68967084  .00001181  00000+0  52439-4 0  9998
2 59621  42.9997 279.6926 0000978 301.4112  58.6644 15.27572769117421
STARLINK-31774          
1 59622U 24080X   26152.79232384 -.00000765  00000+0 -18293-4 0  9998
2 59622  42.9994 279.6001 0000345  84.5176 275.5715 15.27569056117435
STARLINK-31763          
1 59623U 24080Y   26152.42007304  .00000347  00000+0  22124-4 0  9993
2 59623  43.0011 285.4275 0000985 226.7515 133.3254 15.27568932117333
LEGION 1                
1 59625U 24081A   26153.24995441  .00004261  00000+0  22155-3 0  9997
2 59625  97.5018 231.2673 0010714  65.3521 294.8826 15.16553793115278
LEGION 2                
1 59626U 24081B   26153.21375947  .00004339  00000+0  22560-3 0  9994
2 59626  97.5019 231.3293 0012172  35.4987 324.7054 15.16534952115275
STARLINK-31749          
1 59631U 24082A   26152.95864489 -.00012471  00000+0 -44568-3 0  9995
2 59631  43.0050  23.5733 0000777 299.5413  60.5361 15.27489198117908
STARLINK-31781          
1 59632U 24082B   26152.92205518  .00001924  00000+0  79449-4 0  9991
2 59632  43.0027   9.9992 0000683 264.1508  95.9265 15.27569213117897
